NORAD_CAT_ID,OBJECT_NAME,OBJECT_TYPE,EPOCH,MEAN_MOTION,ECCENTRICITY,INCLINATION,RA_OF_ASC_NODE,ARG_OF_PERICENTER,MEAN_ANOMALY,BSTAR,MEAN_MOTION_DOT,MEAN_MOTION_DDOT,TLE_LINE0,TLE_LINE1,TLE_LINE2,SEMIMAJOR_AXIS,PERIOD,APOGEE,PERIGEE,DECAYED
53248.0,STARLINK-4135,PAYLOAD,2022-08-07 22:00:00,15.73220662,0.0001588999999999,53.2194,332.1676,335.9436,130.3762,9.3549e-05,0.0001254,0.0,0 STARLINK-4135,1 53248U 22086G   22219.91667824  .00012540  00000-0  93549-4 0  9995,2 53248  53.2194 332.1676 0001589 335.9436 130.3762 15.73220662  2897,6727.8359999999975,91.532,350.77,348.63199999999995,0.0
53248.0,STARLINK-4135,PAYLOAD,2022-08-08 12:47:48,15.73245561,0.0001778,53.2202,329.1166,339.5061,20.5887,0.00021467,0.00029673,0.0,0 STARLINK-4135,1 53248U 22086G   22220.53320136  .00029673  00000-0  21467-3 0  9991,2 53248  53.2202 329.1166 0001778 339.5061  20.5887 15.73245561  3491,6727.765,91.531,350.826,348.434,0.0
53248.0,STARLINK-4135,PAYLOAD,2022-08-08 17:22:14,15.73277139,0.0001732,53.2203,328.1729,351.9298,8.1694,0.00040293,0.00056498,0.0,0 STARLINK-4135,1 53248U 22086G   22220.72377914  .00056498  00000-0  40293-3 0  9991,2 53248  53.2203 328.1729 0001732 351.9298   8.1694 15.73277139  3018,6727.675,91.529,350.705,348.375,0.0
53248.0,STARLINK-4135,PAYLOAD,2022-08-08 22:00:00,15.73244135,0.0001688,53.2199,327.2195,357.8714,15.3403,-0.00017831,-0.00025617,0.0,0 STARLINK-4135,1 53248U 22086G   22220.91667824 -.00025617  00000-0 -17831-3 0  9997,2 53248  53.2199 327.2195 0001688 357.8714  15.3403 15.73244135  1305,6727.769,91.531,350.77,348.499,0.0
53248.0,STARLINK-4135,PAYLOAD,2022-08-09 04:00:00,15.73212614,0.0001530999999999,53.2201,325.9808,5.5333,344.4075,-0.00023915,-0.00034066,0.0,0 STARLINK-4135,1 53248U 22086G   22221.16667824 -.00034066  00000-0 -23915-3 0  9993,2 53248  53.2201 325.9808 0001531   5.5333 344.4075 15.73212614  3081,6727.859,91.532,350.754,348.694,0.0
53248.0,STARLINK-4135,PAYLOAD,2022-08-09 14:00:01,15.73172773,0.0001923,53.2204,323.9211,20.8489,170.2426,-0.00054413,-0.00076215,0.0,0 STARLINK-4135,1 53248U 22086G   22221.58334491 -.00076215  00000-0 -54413-3 0  9999,2 53248  53.2204 323.9211 0001923  20.8489 170.2426 15.73172773  3151,6727.973000000001,91.535,351.13199999999995,348.5440000000001,0.0
53248.0,STARLINK-4135,PAYLOAD,2022-08-09 22:00:00,15.73133198,0.0001988,53.22,322.2712,23.3944,256.5706,9.3845e-05,0.00012533,0.0,0 STARLINK-4135,1 53248U 22086G   22221.91667824  .00012533  00000-0  93845-4 0  9999,2 53248  53.2200 322.2712 0001988  23.3944 256.5706 15.73133198  3203,6728.0859999999975,91.537,351.288,348.61300000000006,0.0
53248.0,STARLINK-4135,PAYLOAD,2022-08-10 14:00:01,15.73171992,0.0002082,53.22,318.9738,24.2706,73.4201,0.00022216,0.00030636,0.0,0 STARLINK-4135,1 53248U 22086G   22222.58334491  .00030636  00000-0  22216-3 0  9991,2 53248  53.2200 318.9738 0002082  24.2706  73.4201 15.73171992  1304,6727.975,91.535,351.241,348.439,0.0
53248.0,STARLINK-4135,PAYLOAD,2022-08-10 22:00:00,15.73255888,0.000204,53.2202,317.3237,21.1213,165.4803,-0.00059355,-0.00083308,0.0,0 STARLINK-4135,1 53248U 22086G   22222.91667824 -.00083308  00000-0 -59355-3 0  9997,2 53248  53.2202 317.3237 0002040  21.1213 165.4803 15.73255888  1303,6727.736,91.53,350.973,348.228,0.0
53248.0,STARLINK-4135,PAYLOAD,2022-08-11 14:00:01,15.73258499,0.0002282,53.2205,314.0258,25.1431,339.3989,0.00038995,0.00054604,0.0,0 STARLINK-4135,1 53248U 22086G   22223.58334491  .00054604  00000-0  38995-3 0  9994,2 53248  53.2205 314.0258 0002282  25.1431 339.3989 15.73258499  1305,6727.728,91.53,351.129,348.05800000000005,0.0
53248.0,STARLINK-4135,PAYLOAD,2022-08-11 22:00:00,15.73317231,0.0002227,53.22,312.3754,23.8562,69.7023,0.00014307,0.00019606,0.0,0 STARLINK-4135,1 53248U 22086G   22223.91667824  .00019606  00000-0  14307-3 0  9994,2 53248  53.2200 312.3754 0002227  23.8562  69.7023 15.73317231  3520,6727.561,91.526,350.9240000000001,347.92800000000005,0.0
53248.0,STARLINK-4135,PAYLOAD,2022-08-12 04:00:00,15.73193033,0.0002103,53.2199,311.1375,24.9089,45.2896,0.00042466,0.00059385,0.0,0 STARLINK-4135,1 53248U 22086G   22224.16667824  .00059385  00000-0  42466-3 0  9997,2 53248  53.2199 311.1375 0002103  24.9089  45.2896 15.73193033  3565,6727.915,91.534,351.195,348.365,0.0
53248.0,STARLINK-4135,PAYLOAD,2022-08-12 14:00:01,15.73246246,0.0002401999999999,53.2198,309.0782,22.614,248.7871,-0.00028714,-0.0004081,0.0,0 STARLINK-4135,1 53248U 22086G   22224.58334491 -.00040810  00000-0 -28714-3 0  9999,2 53248  53.2198 309.0782 0002402  22.6140 248.7871 15.73246246  1305,6727.763000000001,91.53,351.244,348.01199999999994,0.0
53248.0,STARLINK-4135,PAYLOAD,2022-08-12 20:00:01,15.73249215,0.0002356999999999,53.2196,307.8404,19.9458,228.2355,-0.0004328,-0.00061059,0.0,0 STARLINK-4135,1 53248U 22086G   22224.83335648 -.00061059  00000-0 -43280-3 0  9995,2 53248  53.2196 307.8404 0002357  19.9458 228.2355 15.73249215  3660,6727.755,91.53,351.206,348.034,0.0
53248.0,STARLINK-4135,PAYLOAD,2022-08-12 22:00:01,15.73259617,0.0002313,53.2198,307.4275,20.593000000000004,339.8259,-0.00069614,-0.00097458,0.0,0 STARLINK-4135,1 53248U 22086G   22224.91668981 -.00097458  00000-0 -69614-3 0  9994,2 53248  53.2198 307.4275 0002313  20.5930 339.8259 15.73259617  1318,6727.725,91.53,351.146,348.034,0.0
53248.0,STARLINK-4135,PAYLOAD,2022-08-13 14:00:01,15.73132094,0.0002575,53.22,304.1301,20.8779,157.32399999999996,0.00041263,0.00057524,0.0,0 STARLINK-4135,1 53248U 22086G   22225.58334491  .00057524  00000-0  41263-3 0  9992,2 53248  53.2200 304.1301 0002575  20.8779 157.3240 15.73132094  1301,6728.089,91.537,351.686,348.221,0.0
53248.0,STARLINK-4135,PAYLOAD,2022-08-13 22:00:00,15.73185604,0.0002460999999999,53.2195,302.4795,21.355,245.7149,4.0587e-05,5.075e-05,0.0,0 STARLINK-4135,1 53248U 22086G   22225.91667824  .00005075  00000-0  40587-4 0  9991,2 53248  53.2195 302.4795 0002461  21.3550 245.7149 15.73185604  1304,6727.936,91.534,351.457,348.145,0.0
53248.0,STARLINK-4135,PAYLOAD,2022-08-14 14:00:01,15.73249763,0.0002628,53.2192,299.1823,19.6423,65.3033,-0.00030275,-0.00042993,0.0,0 STARLINK-4135,1 53248U 22086G   22226.58334491 -.00042993  00000-0 -30275-3 0  9990,2 53248  53.2192 299.1823 0002628  19.6423  65.3033 15.73249763  3946,6727.753000000002,91.53,351.386,347.85,0.0
53248.0,STARLINK-4135,PAYLOAD,2022-08-14 22:00:00,15.73229161,0.0002512,53.2192,297.5311,18.7917,155.1309,-8.7884e-05,-0.00012954,0.0,0 STARLINK-4135,1 53248U 22086G   22226.91667824 -.00012954  00000-0 -87884-4 0  9999,2 53248  53.2192 297.5311 0002512  18.7917 155.1309 15.73229161  1302,6727.812,91.531,351.367,347.987,0.0
53248.0,STARLINK-4135,PAYLOAD,2022-08-15 06:00:00,15.73206819,0.0002544,53.2194,295.8812,24.0251,238.8469,-9.283e-05,-0.00013635,0.0,0 STARLINK-4135,1 53248U 22086G   22227.25001157 -.00013635  00000-0 -92830-4 0  9992,2 53248  53.2194 295.8812 0002544  24.0251 238.8469 15.73206819  4042,6727.876,91.533,351.452,348.029,0.0
53248.0,STARLINK-4135,PAYLOAD,2022-08-15 14:00:01,15.73197915,0.0002845,53.2193,294.2337,21.9325,329.8607,-0.0001908,-0.00027316,0.0,0 STARLINK-4135,1 53248U 22086G   22227.58334491 -.00027316  00000-0 -19080-3 0  9994,2 53248  53.2193 294.2337 0002845  21.9325 329.8607 15.73197915  1305,6727.901,91.533,351.68,347.852,0.0
53248.0,STARLINK-4135,PAYLOAD,2022-08-15 22:00:00,15.73161222,0.0002638999999999,53.219,292.5826,19.7202,60.9988,0.00019766,0.00027166,0.0,0 STARLINK-4135,1 53248U 22086G   22227.91667824  .00027166  00000-0  19766-3 0  9992,2 53248  53.2190 292.5826 0002639  19.7202  60.9988 15.73161222  1303,6728.005999999999,91.535,351.646,348.095,0.0
53248.0,STARLINK-4135,PAYLOAD,2022-08-16 06:00:02,15.73197682,0.0002622,53.219,290.9332,22.3921,147.2791,0.00019317,0.00026575,0.0,0 STARLINK-4135,1 53248U 22086G   22228.25002315  .00026575  00000-0  19317-3 0  9993,2 53248  53.2190 290.9332 0002622  22.3921 147.2791 15.73197682  4209,6727.901999999999,91.533,351.531,348.00300000000016,0.0
53248.0,STARLINK-4135,PAYLOAD,2022-08-16 14:00:01,15.73213292,0.0002884999999999,53.2188,289.2856,19.043,239.5046,0.00014318,0.00019533,0.0,0 STARLINK-4135,1 53248U 22086G   22228.58334491  .00019533  00000-0  14318-3 0  9994,2 53248  53.2188 289.2856 0002885  19.0430 239.5046 15.73213292  1309,6727.857,91.532,351.663,347.781,0.0
53248.0,STARLINK-4135,PAYLOAD,2022-08-16 22:00:00,15.73195279,0.0002657,53.2188,287.6342,18.0878,329.4286,0.00012121,0.00016421,0.0,0 STARLINK-4135,1 53248U 22086G   22228.91667824  .00016421  00000-0  12121-3 0  9993,2 53248  53.2188 287.6342 0002657  18.0878 329.4286 15.73195279  1302,6727.909000000002,91.533,351.561,347.986,0.0
53248.0,STARLINK-4135,PAYLOAD,2022-08-17 06:00:02,15.73239734,0.0002695,53.2191,285.9846,18.1629,58.3315,-0.00016762,-0.00024124,0.0,0 STARLINK-4135,1 53248U 22086G   22229.25002315 -.00024124  00000-0 -16762-3 0  9995,2 53248  53.2191 285.9846 0002695  18.1629  58.3315 15.73239734  4368,6727.781999999997,91.531,351.46,347.834,0.0
53248.0,STARLINK-4135,PAYLOAD,2022-08-17 14:00:01,15.73172892,0.0002963,53.2191,284.3369,14.1468,151.2621,0.00038181,0.0005325,0.0,0 STARLINK-4135,1 53248U 22086G   22229.58334491  .00053250  00000-0  38181-3 0  9993,2 53248  53.2191 284.3369 0002963  14.1468 151.2621 15.73172892  1301,6727.972,91.535,351.831,347.844,0.0
53248.0,STARLINK-4135,PAYLOAD,2022-08-18 08:00:01,15.73213114,0.0002963,53.2187,280.6247,20.3104,75.2133,0.00014329,0.00019549,0.0,0 STARLINK-4135,1 53248U 22086G   22230.33334491  .00019549  00000-0  14329-3 0  9999,2 53248  53.2187 280.6247 0002963  20.3104  75.2133 15.73213114  4530,6727.858,91.532,351.716,347.72900000000016,0.0
53248.0,STARLINK-4135,PAYLOAD,2022-08-18 14:00:01,15.73221045,0.0003106,53.2186,279.3887,18.5163,53.7194,0.00018137,0.00024935,0.0,0 STARLINK-4135,1 53248U 22086G   22230.58334491  .00024935  00000-0  18137-3 0  9992,2 53248  53.2186 279.3887 0003106  18.5163  53.7194 15.73221045  1300,6727.835,91.532,351.79,347.611,0.0
